COMMENT,ORIGINATOR,NORAD_CAT_ID,OBJECT_NAME,OBJECT_TYPE,CLASSIFICATION_TYPE,INTLDES,EPOCH,EPOCH_MICROSECONDS,MEAN_MOTION,ECCENTRICITY,INCLINATION,RA_OF_ASC_NODE,ARG_OF_PERICENTER,MEAN_ANOMALY,EPHEMERIS_TYPE,ELEMENT_SET_NO,REV_AT_EPOCH,BSTAR,MEAN_MOTION_DOT,MEAN_MOTION_DDOT,FILE,TLE_LINE0,TLE_LINE1,TLE_LINE2,OBJECT_ID,OBJECT_NUMBER,SEMIMAJOR_AXIS,PERIOD,APOGEE,PERIGEE,DECAYED
"GENERATED VIA SPACETRACK.ORG API","18 SPCS","55089","SPACEBEE-163","PAYLOAD","U","23001CJ","2023-03-15 09:59:21","223968","15.16248023","0.0014127","97.4886","135.5154","331.639","28.4072","0","999","1087","0.0014746","0.00028613","0","3861350","0 SPACEBEE-163","1 55089U 23001CJ  23074.41621787  .00028613  00000-0  14746-2 0  9999","2 55089  97.4886 135.5154 0014127 331.6390  28.4072 15.16248023 10876","2023-001CJ","55089","6895.329","94.971","526.935","507.453","0"
"GENERATED VIA SPACETRACK.ORG API","18 SPCS","55089","SPACEBEE-163","PAYLOAD","U","23001CJ","2023-03-16 03:24:41","44608","15.16293372","0.001407","97.4887","136.2324","328.7604","31.2792","0","999","1098","0.0015474","0.00030073","0","3862295","0 SPACEBEE-163","1 55089U 23001CJ  23075.14214172  .00030073  00000-0  15474-2 0  9998","2 55089  97.4887 136.2324 0014070 328.7604  31.2792 15.16293372 10986","2023-001CJ","55089","6895.192","94.968","526.758","507.355","0"
"GENERATED VIA SPACETRACK.ORG API","18 SPCS","55089","SPACEBEE-163","PAYLOAD","U","23001CJ","2023-03-16 14:29:52","780704","15.16314712","0.0014057","97.4887","136.6881","326.8838","33.1514","0","999","1105","0.0011814","0.00022936","0","3862592","0 SPACEBEE-163","1 55089U 23001CJ  23075.60408311  .00022936  00000-0  11814-2 0  9992","2 55089  97.4887 136.6881 0014057 326.8838  33.1514 15.16314712 11055","2023-001CJ","55089","6895.127","94.967","526.685","507.300","0"
"GENERATED VIA SPACETRACK.ORG API","18 SPCS","55089","SPACEBEE-163","PAYLOAD","U","23001CJ","2023-03-16 22:25:00","878016","15.16327262","0.0013976","97.4891","137.0144","325.6122","34.4205","0","999","1110","0.001122","0.00021783","0","3862593","0 SPACEBEE-163","1 55089U 23001CJ  23075.93403794  .00021783  00000-0  11220-2 0  9998","2 55089  97.4891 137.0144 0013976 325.6122  34.4205 15.16327262 11100","2023-001CJ","55089","6895.089","94.966","526.591","507.317","0"
"GENERATED VIA SPACETRACK.ORG API","18 SPCS","55089","SPACEBEE-163","PAYLOAD","U","23001CJ","2023-03-17 03:10:05","624256","15.16336026","0.0013958","97.4888","137.2097","324.9258","35.1054","0","999","1113","0.0011266","0.00021878","0","3863278","0 SPACEBEE-163","1 55089U 23001CJ  23076.13200954  .00021878  00000-0  11266-2 0  9999","2 55089  97.4888 137.2097 0013958 324.9258  35.1054 15.16336026 11138","2023-001CJ","55089","6895.062","94.966","526.552","507.303","0"
"GENERATED VIA SPACETRACK.ORG API","18 SPCS","55089","SPACEBEE-163","PAYLOAD","U","23001CJ","2023-03-17 14:15:16","346016","15.16352599","0.0013889","97.4886","137.6653","323.0292","36.9983","0","999","1120","0.0010042","0.00019496","0","3863544","0 SPACEBEE-163","1 55089U 23001CJ  23076.59393919  .00019496  00000-0  10042-2 0  9997","2 55089  97.4886 137.6653 0013889 323.0292  36.9983 15.16352599 11200","2023-001CJ","55089","6895.012","94.965","526.454","507.301","0"
"GENERATED VIA SPACETRACK.ORG API","18 SPCS","55089","SPACEBEE-163","PAYLOAD","U","23001CJ","2023-03-18 02:55:28","80192","15.16372016","0.0013873","97.4884","138.1865","321.2497","38.774","0","999","1128","0.0010113","0.00019646","0","3863821","0 SPACEBEE-163","1 55089U 23001CJ  23077.12185278  .00019646  00000-0  10113-2 0  9990","2 55089  97.4884 138.1865 0013873 321.2497  38.7740 15.16372016 11284","2023-001CJ","55089","6894.953","94.964","526.384","507.253","0"
"GENERATED VIA SPACETRACK.ORG API","18 SPCS","55089","SPACEBEE-163","PAYLOAD","U","23001CJ","2023-03-18 21:55:44","569920","15.16400043","0.0013844","97.4888","138.9683","318.3176","41.7001","0","999","1140","0.00092908","0.00018053","0","3864479","0 SPACEBEE-163","1 55089U 23001CJ  23077.91371030  .00018053  00000-0  92908-3 0  9994","2 55089  97.4888 138.9683 0013844 318.3176  41.7001 15.16400043 11403","2023-001CJ","55089","6894.868","94.962","526.279","507.188","0"
"GENERATED VIA SPACETRACK.ORG API","18 SPCS","55089","SPACEBEE-163","PAYLOAD","U","23001CJ","2023-03-19 10:35:54","804192","15.16420368","0.0013838","97.4889","139.4896","316.6992","43.3152","0","999","1148","0.00093233","0.00018127","0","3865030","0 SPACEBEE-163","1 55089U 23001CJ  23078.44160653  .00018127  00000-0  93233-3 0  9994","2 55089  97.4889 139.4896 0013838 316.6992  43.3152 15.16420368 11481","2023-001CJ","55089","6894.807","94.960","526.213","507.131","0"
"GENERATED VIA SPACETRACK.ORG API","18 SPCS","55089","SPACEBEE-163","PAYLOAD","U","23001CJ","2023-03-19 10:35:54","804192","15.16420368","0.0013838","97.4889","139.4896","316.6992","43.3152","0","999","1148","0.00093233","0.00018127","0","3865049","0 SPACEBEE-163","1 55089U 23001CJ  23078.44160653  .00018127  00000-0  93233-3 0  9994","2 55089  97.4889 139.4896 0013838 316.6992  43.3152 15.16420368 11481","2023-001CJ","55089","6894.807","94.960","526.213","507.131","0"
"GENERATED VIA SPACETRACK.ORG API","18 SPCS","55089","SPACEBEE-163","PAYLOAD","U","23001CJ","2023-03-19 16:55:59","632320","15.16433841","0.0013821","97.4889","139.7502","315.8027","44.2101","0","999","1152","0.0010113","0.0001968","0","3865354","0 SPACEBEE-163","1 55089U 23001CJ  23078.70555130  .00019680  00000-0  10113-2 0  9991","2 55089  97.4889 139.7502 0013821 315.8027  44.2101 15.16433841 11529","2023-001CJ","55089","6894.766","94.960","526.160","507.102","0"
"GENERATED VIA SPACETRACK.ORG API","18 SPCS","55089","SPACEBEE-163","PAYLOAD","U","23001CJ","2023-03-20 10:21:12","139200","15.16463225","0.0013771","97.4888","140.4667","313.2529","46.7554","0","999","1163","0.0010179","0.00019826","0","3865912","0 SPACEBEE-163","1 55089U 23001CJ  23079.43139050  .00019826  00000-0  10179-2 0  9995","2 55089  97.4888 140.4667 0013771 313.2529  46.7554 15.16463225 11632","2023-001CJ","55089","6894.677","94.958","526.037","507.047","0"
"GENERATED VIA SPACETRACK.ORG API","18 SPCS","55089","SPACEBEE-163","PAYLOAD","U","23001CJ","2023-03-20 16:41:16","376352","15.16475114","0.0013735","97.4886","140.7273","312.3123","47.6945","0","999","1167","0.0010398","0.00020262","0","3866105","0 SPACEBEE-163","1 55089U 23001CJ  23079.69532843  .00020262  00000-0  10398-2 0  9999","2 55089  97.4886 140.7273 0013735 312.3123  47.6945 15.16475114 11674","2023-001CJ","55089","6894.641","94.957","525.976","507.036","0"
"GENERATED VIA SPACETRACK.ORG API","18 SPCS","55089","SPACEBEE-163","PAYLOAD","U","23001CJ","2023-03-20 16:41:16","376352","15.16475114","0.0013735","97.4886","140.7273","312.3123","47.6945","0","999","1167","0.0010398","0.00020262","0","3866115","0 SPACEBEE-163","1 55089U 23001CJ  23079.69532843  .00020262  00000-0  10398-2 0  9999","2 55089  97.4886 140.7273 0013735 312.3123  47.6945 15.16475114 11674","2023-001CJ","55089","6894.641","94.957","525.976","507.036","0"
"GENERATED VIA SPACETRACK.ORG API","18 SPCS","55089","SPACEBEE-163","PAYLOAD","U","23001CJ","2023-03-21 03:46:23","385504","15.16495013","0.0013708","97.4884","141.1833","310.5389","49.465","0","999","1174","0.0010614","0.00020697","0","3866730","0 SPACEBEE-163","1 55089U 23001CJ  23080.15721511  .00020697  00000-0  10614-2 0  9997","2 55089  97.4884 141.1833 0013708 310.5389  49.4650 15.16495013 11744","2023-001CJ","55089","6894.581","94.956","525.897","506.994","0"
"GENERATED VIA SPACETRACK.ORG API","18 SPCS","55089","SPACEBEE-163","PAYLOAD","U","23001CJ","2023-03-21 21:11:33","369504","15.16524356","0.0013679","97.488","141.8998","307.6995","52.2997","0","999","1185","0.0010245","0.00019989","0","3866945","0 SPACEBEE-163","1 55089U 23001CJ  23080.88302511  .00019989  00000-0  10245-2 0  9994","2 55089  97.4880 141.8998 0013679 307.6995  52.2997 15.16524356 11857","2023-001CJ","55089","6894.492","94.954","525.788","506.926","0"
"GENERATED VIA SPACETRACK.ORG API","18 SPCS","55089","SPACEBEE-163","PAYLOAD","U","23001CJ","2023-03-21 21:11:33","369504","15.16524356","0.0013679","97.488","141.8998","307.6995","52.2997","0","999","1185","0.0010245","0.00019989","0","3866953","0 SPACEBEE-163","1 55089U 23001CJ  23080.88302511  .00019989  00000-0  10245-2 0  9994","2 55089  97.4880 141.8998 0013679 307.6995  52.2997 15.16524356 11857","2023-001CJ","55089","6894.492","94.954","525.788","506.926","0"
"GENERATED VIA SPACETRACK.ORG API","18 SPCS","55089","SPACEBEE-163","PAYLOAD","U","23001CJ","2023-03-22 16:11:42","910944","15.16557423","0.0013666","97.4872","142.6815","304.3808","55.6132","0","999","1197","0.0010431","0.00020374","0","3868201","0 SPACEBEE-163","1 55089U 23001CJ  23081.67480221  .00020374  00000-0  10431-2 0  9994","2 55089  97.4872 142.6815 0013666 304.3808  55.6132 15.16557423 11970","2023-001CJ","55089","6894.391","94.952","525.678","506.835","0"
"GENERATED VIA SPACETRACK.ORG API","18 SPCS","55089","SPACEBEE-163","PAYLOAD","U","23001CJ","2023-03-23 03:16:47","774784","15.16575255","0.0013689","97.4867","143.1378","302.6562","57.3349","0","999","1204","0.0009479","0.00018513","0","3868198","0 SPACEBEE-163","1 55089U 23001CJ  23082.13666406  .00018513  00000-0  94790-3 0  9990","2 55089  97.4867 143.1378 0013689 302.6562  57.3349 15.16575255 12048","2023-001CJ","55089","6894.337","94.951","525.640","506.765","0"
"GENERATED VIA SPACETRACK.ORG API","18 SPCS","55089","SPACEBEE-163","PAYLOAD","U","23001CJ","2023-03-23 09:36:50","357376","15.16584074","0.0013693","97.4866","143.3981","301.4614","58.528","0","999","1208","0.00088391","0.0001726","0","3868494","0 SPACEBEE-163","1 55089U 23001CJ  23082.40058284  .00017260  00000-0  88391-3 0  9997","2 55089  97.4866 143.3981 0013693 301.4614  58.5280 15.16584074 12089","2023-001CJ","55089","6894.311","94.950","525.616","506.735","0"
